[{"OBJECT_NAME":"TWILIGHT-1 OBJECT D","OBJECT_ID":"2026-004D","EPOCH":"2026-03-09T22:29:50.113248","MEAN_MOTION":14.87523301,"ECCENTRICITY":0.00105116,"INCLINATION":97.8027,"RA_OF_ASC_NODE":69.0991,"ARG_OF_PERICENTER":100.1958,"MEAN_ANOMALY":260.0444,"EPHEMERIS_TYPE":0,"CLASSIFICATION_TYPE":"U","NORAD_CAT_ID":67366,"ELEMENT_SET_NO":999,"REV_AT_EPOCH":853,"BSTAR":0.00074325575,"MEAN_MOTION_DOT":6.698e-5,"MEAN_MOTION_DDOT":0},{"OBJECT_NAME":"COSMOS 2251 DEB","OBJECT_ID":"1993-036BWF","EPOCH":"2026-02-28T12:20:45.545856","MEAN_MOTION":14.78520475,"ECCENTRICITY":0.00593111,"INCLINATION":74.0429,"RA_OF_ASC_NODE":0.3071,"ARG_OF_PERICENTER":78.683,"MEAN_ANOMALY":282.1002,"EPHEMERIS_TYPE":0,"CLASSIFICATION_TYPE":"U","NORAD_CAT_ID":40802,"ELEMENT_SET_NO":999,"REV_AT_EPOCH":65558,"BSTAR":0.00074156774,"MEAN_MOTION_DOT":5.549e-5,"MEAN_MOTION_DDOT":0}]
